STARLINK-1527           
1 46048U 20055X   25347.15081895  .00002568  00000+0  19128-3 0  9996
2 46048  53.0553 145.1058 0001487  77.7391 282.3765 15.06385320295960
STARLINK-1540           
1 46051U 20055AA  25346.85224214  .00000080  00000+0  24246-4 0  9995
2 46051  53.0538 146.4463 0001164  85.0099 275.1023 15.06391719295955
STARLINK-1541           
1 46052U 20055AB  25347.16924665  .00000181  00000+0  31050-4 0  9991
2 46052  53.0555 145.0220 0001208  93.2287 266.8840 15.06387268295969
STARLINK-1543           
1 46053U 20055AC  25347.17292362  .00001037  00000+0  88521-4 0  9991
2 46053  53.0544 145.0058 0001149  91.4479 268.6642 15.06397351295991
STARLINK-1548           
1 46054U 20055AD  25346.71586392  .00000065  00000+0  23218-4 0  9992
2 46054  53.0551 147.0572 0001023  90.5682 269.5424 15.06393176295922
STARLINK-1554           
1 46055U 20055AE  25347.16554558 -.00001850  00000+0 -10531-3 0  9990
2 46055  53.0548 145.0391 0001861  94.2185 265.9017 15.06394947295997
STARLINK-1564           
1 46058U 20055AH  25346.84492510  .00000473  00000+0  50631-4 0  9990
2 46058  53.0542 146.9407 0001351  89.3262 270.7882 15.06397105295934
STARLINK-1570           
1 46059U 20055AJ  25347.13974850 -.00001497  00000+0 -81650-4 0  9990
2 46059  53.0551 145.1558 0000953  84.5237 275.5861 15.06401063295949
STARLINK-1572           
1 46060U 20055AK  25347.13607696  .00010089  00000+0  69523-3 0  9992
2 46060  53.0532 145.1709 0001166  89.4983 270.6139 15.06400253295952
STARLINK-1573           
1 46061U 20055AL  25346.86699593 -.00001035  00000+0 -50631-4 0  9993
2 46061  53.0546 146.4154 0001301  90.0744 270.0394 15.06391996295949
STARLINK-1577           
1 46063U 20055AN  25347.15819328  .00001612  00000+0  12708-3 0  9999
2 46063  53.0544 145.0720 0001362  87.4211 272.6934 15.06398761295988
STARLINK-1583           
1 46064U 20055AP  25346.85961243 -.00001777  00000+0 -10045-3 0  9996
2 46064  53.0543 146.4125 0001128  95.3790 264.7328 15.06391247295949
STARLINK-1525           
1 46066U 20055AR  25347.12316212  .00001177  00000+0  97885-4 0  9999
2 46066  53.0549 125.2292 0001247  82.7742 277.3389 15.06405727296257
STARLINK-1536           
1 46070U 20055AV  25347.10104736 -.00000130  00000+0  10132-4 0  9997
2 46070  53.0547 125.3292 0001271  86.4852 273.6283 15.06392091296263
STARLINK-1542           
1 46073U 20055AY  25347.09366588 -.00001580  00000+0 -87221-4 0  9997
2 46073  53.0537 125.3612 0000668  90.5050 269.6016 15.06391031296257
STARLINK-1549           
1 46074U 20055AZ  25347.07892279  .00001128  00000+0  94634-4 0  9999
2 46074  53.0560 125.4249 0001407  97.0675 263.0474 15.06397897296249
