[{"OBJECT_NAME":"STARLINK-1527","OBJECT_ID":"2020-055X","EPOCH":"2025-12-13T03:37:10.757280","MEAN_MOTION":15.0638532,"ECCENTRICITY":0.00014876,"INCLINATION":53.0553,"RA_OF_ASC_NODE":145.1058,"ARG_OF_PERICENTER":77.7391,"MEAN_ANOMALY":282.3765,"EPHEMERIS_TYPE":0,"CLASSIFICATION_TYPE":"U","NORAD_CAT_ID":46048,"ELEMENT_SET_NO":999,"REV_AT_EPOCH":29596,"BSTAR":0.00019128059,"MEAN_MOTION_DOT":2.568e-5,"MEAN_MOTION_DDOT":0},{"OBJECT_NAME":"STARLINK-1540","OBJECT_ID":"2020-055AA","EPOCH":"2025-12-12T20:27:13.720896","MEAN_MOTION":15.06391719,"ECCENTRICITY":0.00011644,"INCLINATION":53.0538,"RA_OF_ASC_NODE":146.4463,"ARG_OF_PERICENTER":85.0099,"MEAN_ANOMALY":275.1023,"EPHEMERIS_TYPE":0,"CLASSIFICATION_TYPE":"U","NORAD_CAT_ID":46051,"ELEMENT_SET_NO":999,"REV_AT_EPOCH":29595,"BSTAR":2.4245902e-5,"MEAN_MOTION_DOT":8.0e-7,"MEAN_MOTION_DDOT":0},{"OBJECT_NAME":"STARLINK-1541","OBJECT_ID":"2020-055AB","EPOCH":"2025-12-13T04:03:42.910560","MEAN_MOTION":15.06387268,"ECCENTRICITY":0.00012087,"INCLINATION":53.0555,"RA_OF_ASC_NODE":145.022,"ARG_OF_PERICENTER":93.2287,"MEAN_ANOMALY":266.884,"EPHEMERIS_TYPE":0,"CLASSIFICATION_TYPE":"U","NORAD_CAT_ID":46052,"ELEMENT_SET_NO":999,"REV_AT_EPOCH":29596,"BSTAR":3.1050433e-5,"MEAN_MOTION_DOT":1.81e-6,"MEAN_MOTION_DDOT":0},{"OBJECT_NAME":"STARLINK-1543","OBJECT_ID":"2020-055AC","EPOCH":"2025-12-13T04:09:00.600768","MEAN_MOTION":15.06397351,"ECCENTRICITY":0.00011492,"INCLINATION":53.0544,"RA_OF_ASC_NODE":145.0058,"ARG_OF_PERICENTER":91.4479,"MEAN_ANOMALY":268.6642,"EPHEMERIS_TYPE":0,"CLASSIFICATION_TYPE":"U","NORAD_CAT_ID":46053,"ELEMENT_SET_NO":999,"REV_AT_EPOCH":29599,"BSTAR":8.8520668e-5,"MEAN_MOTION_DOT":1.037e-5,"MEAN_MOTION_DDOT":0},{"OBJECT_NAME":"STARLINK-1548","OBJECT_ID":"2020-055AD","EPOCH":"2025-12-12T17:10:50.642688","MEAN_MOTION":15.06393176,"ECCENTRICITY":0.00010238,"INCLINATION":53.0551,"RA_OF_ASC_NODE":147.0572,"ARG_OF_PERICENTER":90.5682,"MEAN_ANOMALY":269.5424,"EPHEMERIS_TYPE":0,"CLASSIFICATION_TYPE":"U","NORAD_CAT_ID":46054,"ELEMENT_SET_NO":999,"REV_AT_EPOCH":29592,"BSTAR":2.3217584e-5,"MEAN_MOTION_DOT":6.5e-7,"MEAN_MOTION_DDOT":0},{"OBJECT_NAME":"STARLINK-1554","OBJECT_ID":"2020-055AE","EPOCH":"2025-12-13T03:58:23.138112","MEAN_MOTION":15.06394947,"ECCENTRICITY":0.00018613,"INCLINATION":53.0548,"RA_OF_ASC_NODE":145.0391,"ARG_OF_PERICENTER":94.2185,"MEAN_ANOMALY":265.9017,"EPHEMERIS_TYPE":0,"CLASSIFICATION_TYPE":"U","NORAD_CAT_ID":46055,"ELEMENT_SET_NO":999,"REV_AT_EPOCH":29599,"BSTAR":-0.00010530894,"MEAN_MOTION_DOT":-1.85e-5,"MEAN_MOTION_DDOT":0},{"OBJECT_NAME":"STARLINK-1564","OBJECT_ID":"2020-055AH","EPOCH":"2025-12-12T20:16:41.528640","MEAN_MOTION":15.06397105,"ECCENTRICITY":0.00013516,"INCLINATION":53.0542,"RA_OF_ASC_NODE":146.9407,"ARG_OF_PERICENTER":89.3262,"MEAN_ANOMALY":270.7882,"EPHEMERIS_TYPE":0,"CLASSIFICATION_TYPE":"U","NORAD_CAT_ID":46058,"ELEMENT_SET_NO":999,"REV_AT_EPOCH":29593,"BSTAR":5.0630647e-5,"MEAN_MOTION_DOT":4.73e-6,"MEAN_MOTION_DDOT":0},{"OBJECT_NAME":"STARLINK-1570","OBJECT_ID":"2020-055AJ","EPOCH":"2025-12-13T03:21:14.270400","MEAN_MOTION":15.06401063,"ECCENTRICITY":9.533e-5,"INCLINATION":53.0551,"RA_OF_ASC_NODE":145.1558,"ARG_OF_PERICENTER":84.5237,"MEAN_ANOMALY":275.5861,"EPHEMERIS_TYPE":0,"CLASSIFICATION_TYPE":"U","NORAD_CAT_ID":46059,"ELEMENT_SET_NO":999,"REV_AT_EPOCH":29594,"BSTAR":-8.1650021e-5,"MEAN_MOTION_DOT":-1.497e-5,"MEAN_MOTION_DDOT":0},{"OBJECT_NAME":"STARLINK-1572","OBJECT_ID":"2020-055AK","EPOCH":"2025-12-13T03:15:57.049344","MEAN_MOTION":15.06400253,"ECCENTRICITY":0.00011668,"INCLINATION":53.0532,"RA_OF_ASC_NODE":145.1709,"ARG_OF_PERICENTER":89.4983,"MEAN_ANOMALY":270.6139,"EPHEMERIS_TYPE":0,"CLASSIFICATION_TYPE":"U","NORAD_CAT_ID":46060,"ELEMENT_SET_NO":999,"REV_AT_EPOCH":29595,"BSTAR":0.00069523318,"MEAN_MOTION_DOT":0.00010089,"MEAN_MOTION_DDOT":0},{"OBJECT_NAME":"STARLINK-1573","OBJECT_ID":"2020-055AL","EPOCH":"2025-12-12T20:48:28.448352","MEAN_MOTION":15.06391996,"ECCENTRICITY":0.0001301,"INCLINATION":53.0546,"RA_OF_ASC_NODE":146.4154,"ARG_OF_PERICENTER":90.0744,"MEAN_ANOMALY":270.0394,"EPHEMERIS_TYPE":0,"CLASSIFICATION_TYPE":"U","NORAD_CAT_ID":46061,"ELEMENT_SET_NO":999,"REV_AT_EPOCH":29594,"BSTAR":-5.0631129e-5,"MEAN_MOTION_DOT":-1.035e-5,"MEAN_MOTION_DDOT":0},{"OBJECT_NAME":"STARLINK-1577","OBJECT_ID":"2020-055AN","EPOCH":"2025-12-13T03:47:47.899392","MEAN_MOTION":15.06398761,"ECCENTRICITY":0.00013626,"INCLINATION":53.0544,"RA_OF_ASC_NODE":145.072,"ARG_OF_PERICENTER":87.4211,"MEAN_ANOMALY":272.6934,"EPHEMERIS_TYPE":0,"CLASSIFICATION_TYPE":"U","NORAD_CAT_ID":46063,"ELEMENT_SET_NO":999,"REV_AT_EPOCH":29598,"BSTAR":0.00012707857,"MEAN_MOTION_DOT":1.612e-5,"MEAN_MOTION_DDOT":0},{"OBJECT_NAME":"STARLINK-1583","OBJECT_ID":"2020-055AP","EPOCH":"2025-12-12T20:37:50.513952","MEAN_MOTION":15.06391247,"ECCENTRICITY":0.00011281,"INCLINATION":53.0543,"RA_OF_ASC_NODE":146.4125,"ARG_OF_PERICENTER":95.379,"MEAN_ANOMALY":264.7328,"EPHEMERIS_TYPE":0,"CLASSIFICATION_TYPE":"U","NORAD_CAT_ID":46064,"ELEMENT_SET_NO":999,"REV_AT_EPOCH":29594,"BSTAR":-0.00010044722,"MEAN_MOTION_DOT":-1.777e-5,"MEAN_MOTION_DDOT":0},{"OBJECT_NAME":"STARLINK-1525","OBJECT_ID":"2020-055AR","EPOCH":"2025-12-13T02:57:21.207168","MEAN_MOTION":15.06405727,"ECCENTRICITY":0.00012472,"INCLINATION":53.0549,"RA_OF_ASC_NODE":125.2292,"ARG_OF_PERICENTER":82.7742,"MEAN_ANOMALY":277.3389,"EPHEMERIS_TYPE":0,"CLASSIFICATION_TYPE":"U","NORAD_CAT_ID":46066,"ELEMENT_SET_NO":999,"REV_AT_EPOCH":29625,"BSTAR":9.7885164e-5,"MEAN_MOTION_DOT":1.177e-5,"MEAN_MOTION_DDOT":0},{"OBJECT_NAME":"STARLINK-1536","OBJECT_ID":"2020-055AV","EPOCH":"2025-12-13T02:25:30.491904","MEAN_MOTION":15.06392091,"ECCENTRICITY":0.00012713,"INCLINATION":53.0547,"RA_OF_ASC_NODE":125.3292,"ARG_OF_PERICENTER":86.4852,"MEAN_ANOMALY":273.6283,"EPHEMERIS_TYPE":0,"CLASSIFICATION_TYPE":"U","NORAD_CAT_ID":46070,"ELEMENT_SET_NO":999,"REV_AT_EPOCH":29626,"BSTAR":1.0131984e-5,"MEAN_MOTION_DOT":-1.3e-6,"MEAN_MOTION_DDOT":0},{"OBJECT_NAME":"STARLINK-1542","OBJECT_ID":"2020-055AY","EPOCH":"2025-12-13T02:14:52.732032","MEAN_MOTION":15.06391031,"ECCENTRICITY":6.686e-5,"INCLINATION":53.0537,"RA_OF_ASC_NODE":125.3612,"ARG_OF_PERICENTER":90.505,"MEAN_ANOMALY":269.6016,"EPHEMERIS_TYPE":0,"CLASSIFICATION_TYPE":"U","NORAD_CAT_ID":46073,"ELEMENT_SET_NO":999,"REV_AT_EPOCH":29625,"BSTAR":-8.7221174e-5,"MEAN_MOTION_DOT":-1.58e-5,"MEAN_MOTION_DDOT":0},{"OBJECT_NAME":"STARLINK-1549","OBJECT_ID":"2020-055AZ","EPOCH":"2025-12-13T01:53:38.929056","MEAN_MOTION":15.06397897,"ECCENTRICITY":0.00014077,"INCLINATION":53.056,"RA_OF_ASC_NODE":125.4249,"ARG_OF_PERICENTER":97.0675,"MEAN_ANOMALY":263.0474,"EPHEMERIS_TYPE":0,"CLASSIFICATION_TYPE":"U","NORAD_CAT_ID":46074,"ELEMENT_SET_NO":999,"REV_AT_EPOCH":29624,"BSTAR":9.4634211e-5,"MEAN_MOTION_DOT":1.128e-5,"MEAN_MOTION_DDOT":0}]
